{
  "norad_id": 58909,
  "name": "GEESAT-2 05",
  "history": [
    {
      "epoch": "2026-03-28T21:52:17.918400",
      "apogee_km": 627.6251213143951,
      "perigee_km": 612.319835998006,
      "latitude_deg": 38.13144696438136,
      "longitude_deg": 158.38657599990256,
      "semi_major_axis_km": 6998.109478656201,
      "eccentricity": 0.00109353,
      "inclination_deg": 50.0057,
      "raan_deg": 5.9996,
      "arg_perigee_deg": 115.0528,
      "mean_anomaly_deg": 245.1546,
      "mean_motion_rev_day": 14.82967603
    },
    {
      "epoch": "2026-03-29T04:20:25.794240",
      "apogee_km": 627.617678407184,
      "perigee_km": 612.3100325958612,
      "latitude_deg": -44.642001875235565,
      "longitude_deg": -175.73800640017726,
      "semi_major_axis_km": 6998.100855501522,
      "eccentricity": 0.0010937,
      "inclination_deg": 50.0058,
      "raan_deg": 4.7522,
      "arg_perigee_deg": 116.0981,
      "mean_anomaly_deg": 244.1084,
      "mean_motion_rev_day": 14.82970344
    }
  ]
}